SAOCOM 1A               
1 43641U 18076A   26083.47782069  .00000703  00000+0  94837-4 0  9996
2 43641  97.8900 271.4414 0001452  88.5370 271.6010 14.82156455403554
H-2A R/B                
1 43682U 18084L   26083.33660858  .00018828  00000+0  43984-3 0  9999
2 43682  98.8706 303.8610 0024146 334.6064  25.3990 15.41959478408033
SAOCOM 1B               
1 46265U 20059A   26083.50904544  .00000023  00000+0  94793-5 0  9990
2 46265  97.8901 270.5702 0001490  86.2210 273.9174 14.82150587300945
CSS (TIANHE)            
1 48274U 21035A   26083.49395739  .00019397  00000+0  22400-3 0  9993
2 48274  41.4663 118.0307 0004758  10.7895 349.3045 15.61427580279921
CZ-2C R/B               
1 52794U 22058K   26083.16603807  .00030792  00000+0  43415-3 0  9994
2 52794  50.1878 243.7627 0041635 262.6993  96.9245 15.55264976212386
CZ-2C R/B               
1 54039U 22132E   26082.97340210  .00046290  00000+0  50219-3 0  9995
2 54039  97.2964  86.7380 0018708  45.7338 314.5452 15.63169879192603
GSLV R/B                
1 54149U 22138AN  26083.49541050  .00003256  00000+0  27994-3 0  9995
2 54149  87.3866 161.4065 0024109  97.6350 262.7621 14.96870505186143
XRISM                   
1 57800U 23137A   26083.49813652  .00005159  00000+0  29015-3 0  9992
2 57800  31.0010 187.8676 0007952 188.7365 171.3136 15.11664552140037
ACS3                    
1 59588U 24077B   26083.39921184  .00027995  00000+0  22093-1 0  9999
2 59588  97.1994  21.2054 0070696  42.4694 318.1911 13.90283741 96240
SZ-21 MODULE            
1 66515U 25246C   26083.45739579  .00033703  00000+0  27749-3 0  9997
2 66515  41.4738 112.3746 0000853 213.1562 146.9227 15.69668398 20398
